STARLINK-37316          
1 68673U 26077M   26112.47881293 -.00217299  00000+0 -14919-2 0  9993
2 68673  97.2837 343.5333 0001408 121.8289 238.3114 15.75211642  1801
